CCSDS_OMM_VERS = 2.0
CREATION_DATE  = 
ORIGINATOR     = 

OBJECT_NAME    = SENTINEL-6B
OBJECT_ID      = 2025-264A
CENTER_NAME    = EARTH
REF_FRAME      = TEME
TIME_SYSTEM    = UTC
MEAN_ELEMENT_THEORY = SGP/SGP4

EPOCH          = 2025-12-12T06:01:21.430272
MEAN_MOTION    = 12.81479576
ECCENTRICITY   = .0007847
INCLINATION    = 66.0385
RA_OF_ASC_NODE = 163.4531
ARG_OF_PERICENTER = 270.1745
MEAN_ANOMALY   = 89.8371

EPHEMERIS_TYPE = 0
CLASSIFICATION_TYPE = U
NORAD_CAT_ID   = 66514
ELEMENT_SET_NO = 999
REV_AT_EPOCH   = 322
BSTAR          = .18864317E-3
MEAN_MOTION_DOT = -.17E-6
MEAN_MOTION_DDOT = 0

CCSDS_OMM_VERS = 2.0
CREATION_DATE  = 
ORIGINATOR     = 

OBJECT_NAME    = STARLINK-35924
OBJECT_ID      = 2025-265A
CENTER_NAME    = EARTH
REF_FRAME      = TEME
TIME_SYSTEM    = UTC
MEAN_ELEMENT_THEORY = SGP/SGP4

EPOCH          = 2025-12-16T06:00:02.999808
MEAN_MOTION    = 15.40684171
ECCENTRICITY   = .00013607
INCLINATION    = 43.0007
RA_OF_ASC_NODE = 33.8930
ARG_OF_PERICENTER = 253.6364
MEAN_ANOMALY   = 257.2486

EPHEMERIS_TYPE = 0
CLASSIFICATION_TYPE = U
NORAD_CAT_ID   = 66516
ELEMENT_SET_NO = 999
REV_AT_EPOCH   = 553
BSTAR          = .30194513E-3
MEAN_MOTION_DOT = .12323E-3
MEAN_MOTION_DDOT = 0

CCSDS_OMM_VERS = 2.0
CREATION_DATE  = 
ORIGINATOR     = 

OBJECT_NAME    = STARLINK-35937
OBJECT_ID      = 2025-265B
CENTER_NAME    = EARTH
REF_FRAME      = TEME
TIME_SYSTEM    = UTC
MEAN_ELEMENT_THEORY = SGP/SGP4

EPOCH          = 2025-12-16T06:11:45.451680
MEAN_MOTION    = 15.48668381
ECCENTRICITY   = .0002418
INCLINATION    = 42.9996
RA_OF_ASC_NODE = 33.4472
ARG_OF_PERICENTER = 272.4531
MEAN_ANOMALY   = 87.6052

EPHEMERIS_TYPE = 0
CLASSIFICATION_TYPE = U
NORAD_CAT_ID   = 66517
ELEMENT_SET_NO = 999
REV_AT_EPOCH   = 430
BSTAR          = -.36648679E-2
MEAN_MOTION_DOT = -.196333E-2
MEAN_MOTION_DDOT = 0

CCSDS_OMM_VERS = 2.0
CREATION_DATE  = 
ORIGINATOR     = 

OBJECT_NAME    = STARLINK-35962
OBJECT_ID      = 2025-265C
CENTER_NAME    = EARTH
REF_FRAME      = TEME
TIME_SYSTEM    = UTC
MEAN_ELEMENT_THEORY = SGP/SGP4

EPOCH          = 2025-12-14T10:53:57.808320
MEAN_MOTION    = 15.50609594
ECCENTRICITY   = .00017695
INCLINATION    = 43.0014
RA_OF_ASC_NODE = 43.9914
ARG_OF_PERICENTER = 290.7607
MEAN_ANOMALY   = 69.3063

EPHEMERIS_TYPE = 0
CLASSIFICATION_TYPE = U
NORAD_CAT_ID   = 66518
ELEMENT_SET_NO = 999
REV_AT_EPOCH   = 402
BSTAR          = .18445082E-2
MEAN_MOTION_DOT = .109513E-2
MEAN_MOTION_DDOT = 0

CCSDS_OMM_VERS = 2.0
CREATION_DATE  = 
ORIGINATOR     = 

OBJECT_NAME    = STARLINK-35931
OBJECT_ID      = 2025-265D
CENTER_NAME    = EARTH
REF_FRAME      = TEME
TIME_SYSTEM    = UTC
MEAN_ELEMENT_THEORY = SGP/SGP4

EPOCH          = 2025-12-15T13:09:50.374080
MEAN_MOTION    = 15.50650168
ECCENTRICITY   = .00049678
INCLINATION    = 43.0015
RA_OF_ASC_NODE = 37.5821
ARG_OF_PERICENTER = 281.4520
MEAN_ANOMALY   = 78.5782

EPHEMERIS_TYPE = 0
CLASSIFICATION_TYPE = U
NORAD_CAT_ID   = 66519
ELEMENT_SET_NO = 999
REV_AT_EPOCH   = 419
BSTAR          = .13394698E-2
MEAN_MOTION_DOT = .79268E-3
MEAN_MOTION_DDOT = 0

CCSDS_OMM_VERS = 2.0
CREATION_DATE  = 
ORIGINATOR     = 

OBJECT_NAME    = STARLINK-35952
OBJECT_ID      = 2025-265E
CENTER_NAME    = EARTH
REF_FRAME      = TEME
TIME_SYSTEM    = UTC
MEAN_ELEMENT_THEORY = SGP/SGP4

EPOCH          = 2025-12-16T06:00:02.999808
MEAN_MOTION    = 15.40680958
ECCENTRICITY   = .00009465
INCLINATION    = 43.0003
RA_OF_ASC_NODE = 33.7721
ARG_OF_PERICENTER = 246.5646
MEAN_ANOMALY   = 314.0854

EPHEMERIS_TYPE = 0
CLASSIFICATION_TYPE = U
NORAD_CAT_ID   = 66520
ELEMENT_SET_NO = 999
REV_AT_EPOCH   = 555
BSTAR          = .25494521E-3
MEAN_MOTION_DOT = .10354E-3
MEAN_MOTION_DDOT = 0

CCSDS_OMM_VERS = 2.0
CREATION_DATE  = 
ORIGINATOR     = 

OBJECT_NAME    = STARLINK-35915
OBJECT_ID      = 2025-265F
CENTER_NAME    = EARTH
REF_FRAME      = TEME
TIME_SYSTEM    = UTC
MEAN_ELEMENT_THEORY = SGP/SGP4

EPOCH          = 2025-12-15T13:08:56.619456
MEAN_MOTION    = 15.50613283
ECCENTRICITY   = .00041789
INCLINATION    = 42.9978
RA_OF_ASC_NODE = 37.5756
ARG_OF_PERICENTER = 292.8181
MEAN_ANOMALY   = 67.2238

EPHEMERIS_TYPE = 0
CLASSIFICATION_TYPE = U
NORAD_CAT_ID   = 66521
ELEMENT_SET_NO = 999
REV_AT_EPOCH   = 419
BSTAR          = .10696382E-2
MEAN_MOTION_DOT = .63008E-3
MEAN_MOTION_DDOT = 0

CCSDS_OMM_VERS = 2.0
CREATION_DATE  = 
ORIGINATOR     = 

OBJECT_NAME    = STARLINK-35946
OBJECT_ID      = 2025-265G
CENTER_NAME    = EARTH
REF_FRAME      = TEME
TIME_SYSTEM    = UTC
MEAN_ELEMENT_THEORY = SGP/SGP4

EPOCH          = 2025-12-16T03:03:11.151360
MEAN_MOTION    = 15.50628679
ECCENTRICITY   = .00014256
INCLINATION    = 42.9976
RA_OF_ASC_NODE = 34.1834
ARG_OF_PERICENTER = 304.2198
MEAN_ANOMALY   = 55.8527

EPHEMERIS_TYPE = 0
CLASSIFICATION_TYPE = U
NORAD_CAT_ID   = 66522
ELEMENT_SET_NO = 999
REV_AT_EPOCH   = 428
BSTAR          = .11852833E-2
MEAN_MOTION_DOT = .69941E-3
MEAN_MOTION_DDOT = 0

CCSDS_OMM_VERS = 2.0
CREATION_DATE  = 
ORIGINATOR     = 

OBJECT_NAME    = STARLINK-35969
OBJECT_ID      = 2025-265H
CENTER_NAME    = EARTH
REF_FRAME      = TEME
TIME_SYSTEM    = UTC
MEAN_ELEMENT_THEORY = SGP/SGP4

EPOCH          = 2025-12-16T04:35:26.077920
MEAN_MOTION    = 15.50681242
ECCENTRICITY   = .00077889
INCLINATION    = 43.0038
RA_OF_ASC_NODE = 33.8056
ARG_OF_PERICENTER = 304.3945
MEAN_ANOMALY   = 55.6179

EPHEMERIS_TYPE = 0
CLASSIFICATION_TYPE = U
NORAD_CAT_ID   = 66523
ELEMENT_SET_NO = 999
REV_AT_EPOCH   = 429
BSTAR          = .13806199E-2
MEAN_MOTION_DOT = .81887E-3
MEAN_MOTION_DDOT = 0

CCSDS_OMM_VERS = 2.0
CREATION_DATE  = 
ORIGINATOR     = 

OBJECT_NAME    = STARLINK-35687
OBJECT_ID      = 2025-265J
CENTER_NAME    = EARTH
REF_FRAME      = TEME
TIME_SYSTEM    = UTC
MEAN_ELEMENT_THEORY = SGP/SGP4

EPOCH          = 2025-12-16T06:00:02.999808
MEAN_MOTION    = 15.40683325
ECCENTRICITY   = .00014953
INCLINATION    = 43.0006
RA_OF_ASC_NODE = 33.8310
ARG_OF_PERICENTER = 255.2631
MEAN_ANOMALY   = 280.5042

EPHEMERIS_TYPE = 0
CLASSIFICATION_TYPE = U
NORAD_CAT_ID   = 66524
ELEMENT_SET_NO = 999
REV_AT_EPOCH   = 555
BSTAR          = .29678501E-3
MEAN_MOTION_DOT = .12107E-3
MEAN_MOTION_DDOT = 0

CCSDS_OMM_VERS = 2.0
CREATION_DATE  = 
ORIGINATOR     = 

OBJECT_NAME    = STARLINK-35975
OBJECT_ID      = 2025-265K
CENTER_NAME    = EARTH
REF_FRAME      = TEME
TIME_SYSTEM    = UTC
MEAN_ELEMENT_THEORY = SGP/SGP4

EPOCH          = 2025-12-16T06:00:02.999808
MEAN_MOTION    = 15.40685905
ECCENTRICITY   = .00010371
INCLINATION    = 43.0005
RA_OF_ASC_NODE = 33.7111
ARG_OF_PERICENTER = 285.4365
MEAN_ANOMALY   = 300.0807

EPHEMERIS_TYPE = 0
CLASSIFICATION_TYPE = U
NORAD_CAT_ID   = 66525
ELEMENT_SET_NO = 999
REV_AT_EPOCH   = 555
BSTAR          = .24188672E-3
MEAN_MOTION_DOT = .9809E-4
MEAN_MOTION_DDOT = 0

CCSDS_OMM_VERS = 2.0
CREATION_DATE  = 
ORIGINATOR     = 

OBJECT_NAME    = STARLINK-35932
OBJECT_ID      = 2025-265L
CENTER_NAME    = EARTH
REF_FRAME      = TEME
TIME_SYSTEM    = UTC
MEAN_ELEMENT_THEORY = SGP/SGP4

EPOCH          = 2025-12-14T10:49:31.784448
MEAN_MOTION    = 15.50621032
ECCENTRICITY   = .00017397
INCLINATION    = 43.0001
RA_OF_ASC_NODE = 43.9653
ARG_OF_PERICENTER = 227.2965
MEAN_ANOMALY   = 132.7749

EPHEMERIS_TYPE = 0
CLASSIFICATION_TYPE = U
NORAD_CAT_ID   = 66526
ELEMENT_SET_NO = 999
REV_AT_EPOCH   = 402
BSTAR          = .26007534E-2
MEAN_MOTION_DOT = .155535E-2
MEAN_MOTION_DDOT = 0

