SENTINEL-6B             
1 66514U 25264A   25346.25094248 -.00000017  00000+0  18864-3 0  9993
2 66514  66.0385 163.4531 0007847 270.1745  89.8371 12.81479576  3220
STARLINK-35924          
1 66516U 25265A   25350.25003472  .00012323  00000+0  30195-3 0  9993
2 66516  43.0007  33.8930 0001360 253.6364 257.2486 15.40684171  5539
STARLINK-35937          
1 66517U 25265B   25350.25816495 -.00196333  00000+0 -36649-2 0  9996
2 66517  42.9996  33.4472 0002418 272.4531  87.6052 15.48668381  4303
STARLINK-35962          
1 66518U 25265C   25348.45414130  .00109513  00000+0  18445-2 0  9992
2 66518  43.0014  43.9914 0001769 290.7607  69.3063 15.50609594  4021
STARLINK-35931          
1 66519U 25265D   25349.54849970  .00079268  00000+0  13395-2 0  9990
2 66519  43.0015  37.5821 0004967 281.4520  78.5782 15.50650168  4194
STARLINK-35952          
1 66520U 25265E   25350.25003472  .00010354  00000+0  25495-3 0  9997
2 66520  43.0003  33.7721 0000946 246.5646 314.0854 15.40680958  5552
STARLINK-35915          
1 66521U 25265F   25349.54787754  .00063008  00000+0  10696-2 0  9990
2 66521  42.9978  37.5756 0004178 292.8181  67.2238 15.50613283  4191
STARLINK-35946          
1 66522U 25265G   25350.12721240  .00069941  00000+0  11853-2 0  9993
2 66522  42.9976  34.1834 0001425 304.2198  55.8527 15.50628679  4287
STARLINK-35969          
1 66523U 25265H   25350.19127405  .00081887  00000+0  13806-2 0  9997
2 66523  43.0038  33.8056 0007788 304.3945  55.6179 15.50681242  4297
STARLINK-35687          
1 66524U 25265J   25350.25003472  .00012107  00000+0  29679-3 0  9997
2 66524  43.0006  33.8310 0001495 255.2631 280.5042 15.40683325  5552
STARLINK-35975          
1 66525U 25265K   25350.25003472  .00009809  00000+0  24189-3 0  9994
2 66525  43.0005  33.7111 0001037 285.4365 300.0807 15.40685905  5554
STARLINK-35932          
1 66526U 25265L   25348.45106232  .00155535  00000+0  26008-2 0  9991
2 66526  43.0001  43.9653 0001739 227.2965 132.7749 15.50621032  4022
